{"type": "FeatureCollection", "features": [ {"type": "Feature", "properties": {"norad_id": 30224, "name": "FENGYUN 1C DEB", "group": "fengyun-1c-debris", "lat": -68.28007944491203, "lon": 177.49523020692018, "alt_km": 951.4673240644643, "timestamp": "2025-12-09T14:52:26.436597+00:00", "meta": {"OBJECT_NAME": "FENGYUN 1C DEB", "OBJECT_ID": "1999-025WH", "EPOCH": "2025-12-09T01:49:57.131616", "MEAN_MOTION": 13.8986131, "ECCENTRICITY": 0.01112813, "INCLINATION": 99.4844, "RA_OF_ASC_NODE": 21.7538, "ARG_OF_PERICENTER": 353.1431, "MEAN_ANOMALY": 61.0162, "EPHEMERIS_TYPE": 0, "CLASSIFICATION_TYPE": "U", "NORAD_CAT_ID": 30224, "ELEMENT_SET_NO": 999, "REV_AT_EPOCH": 95690, "BSTAR": 0.00045318237, "MEAN_MOTION_DOT": 5.39e-06, "MEAN_MOTION_DDOT": 0}, "tle": {"line1": "1 30224U 99025WH  25343.07635569  .00000539  00000+0  45318-3 0  9994", "line2": "2 30224  99.4844  21.7538 0111281 353.1431  61.0162 13.89861310956906"}}, "geometry": {"type": "Point", "coordinates": [177.49523020692018, -68.28007944491203]}}, {"type": "Feature", "properties": {"norad_id": 30225, "name": "FENGYUN 1C DEB", "group": "fengyun-1c-debris", "lat": 41.4714024358787, "lon": -161.77704726036873, "alt_km": 784.9760122895013, "timestamp": "2025-12-09T14:52:26.436607+00:00", "meta": {"OBJECT_NAME": "FENGYUN 1C DEB", "OBJECT_ID": "1999-025WJ", "EPOCH": "2025-12-09T00:57:09.866592", "MEAN_MOTION": 14.15180121, "ECCENTRICITY": 0.01005064, "INCLINATION": 98.6601, "RA_OF_ASC_NODE": 9.9184, "ARG_OF_PERICENTER": 96.4305, "MEAN_ANOMALY": 327.1409, "EPHEMERIS_TYPE": 0, "CLASSIFICATION_TYPE": "U", "NORAD_CAT_ID": 30225, "ELEMENT_SET_NO": 999, "REV_AT_EPOCH": 97484, "BSTAR": 0.00022097735, "MEAN_MOTION_DOT": 4.09e-06, "MEAN_MOTION_DDOT": 0}, "tle": {"line1": "1 30225U 99025WJ  25343.03969753  .00000409  00000+0  22098-3 0  9992", "line2": "2 30225  98.6601   9.9184 0100506  96.4305 327.1409 14.15180121974846"}}, "geometry": {"type": "Point", "coordinates": [-161.77704726036873, 41.4714024358787]}}, {"type": "Feature", "properties": {"norad_id": 30229, "name": "FENGYUN 1C DEB", "group": "fengyun-1c-debris", "lat": -46.2520994039049, "lon": -146.63821285352878, "alt_km": 725.077496885785, "timestamp": "2025-12-09T14:52:26.436618+00:00", "meta": {"OBJECT_NAME": "FENGYUN 1C DEB", "OBJECT_ID": "1999-025WN", "EPOCH": "2025-12-09T02:35:38.950944", "MEAN_MOTION": 14.60442405, "ECCENTRICITY": 0.00377188, "INCLINATION": 99.0621, "RA_OF_ASC_NODE": 42.4006, "ARG_OF_PERICENTER": 51.8382, "MEAN_ANOMALY": 6.5076, "EPHEMERIS_TYPE": 0, "CLASSIFICATION_TYPE": "U", "NORAD_CAT_ID": 30229, "ELEMENT_SET_NO": 999, "REV_AT_EPOCH": 98873, "BSTAR": 0.0020789002, "MEAN_MOTION_DOT": 0.00010131, "MEAN_MOTION_DDOT": 0}, "tle": {"line1": "1 30229U 99025WN  25343.10808971  .00010131  00000+0  20789-2 0  9995", "line2": "2 30229  99.0621  42.4006 0037718  51.8382   6.5076 14.60442405988733"}}, "geometry": {"type": "Point", "coordinates": [-146.63821285352878, -46.2520994039049]}}, {"type": "Feature", "properties": {"norad_id": 30231, "name": "FENGYUN 1C DEB", "group": "fengyun-1c-debris", "lat": -76.98246449879406, "lon": 70.5382857031316, "alt_km": 904.4879791294825, "timestamp": "2025-12-09T14:52:26.436628+00:00", "meta": {"OBJECT_NAME": "FENGYUN 1C DEB", "OBJECT_ID": "1999-025WQ", "EPOCH": "2025-12-09T01:55:27.274656", "MEAN_MOTION": 14.11630423, "ECCENTRICITY": 0.01286594, "INCLINATION": 98.8054, "RA_OF_ASC_NODE": 27.9066, "ARG_OF_PERICENTER": 39.6107, "MEAN_ANOMALY": 20.8186, "EPHEMERIS_TYPE": 0, "CLASSIFICATION_TYPE": "U", "NORAD_CAT_ID": 30231, "ELEMENT_SET_NO": 999, "REV_AT_EPOCH": 96968, "BSTAR": 0.00075851317, "MEAN_MOTION_DOT": 1.448e-05, "MEAN_MOTION_DDOT": 0}, "tle": {"line1": "1 30231U 99025WQ  25343.08017679  .00001448  00000+0  75851-3 0  9994", "line2": "2 30231  98.8054  27.9066 0128659  39.6107  20.8186 14.11630423969680"}}, "geometry": {"type": "Point", "coordinates": [70.5382857031316, -76.98246449879406]}}, {"type": "Feature", "properties": {"norad_id": 30232, "name": "FENGYUN 1C DEB", "group": "fengyun-1c-debris", "lat": -0.9089456034208232, "lon": -176.2519280671613, "alt_km": 588.6080866704942, "timestamp": "2025-12-09T14:52:26.436639+00:00", "meta": {"OBJECT_NAME": "FENGYUN 1C DEB", "OBJECT_ID": "1999-025WR", "EPOCH": "2025-12-09T03:55:10.295040", "MEAN_MOTION": 14.63545463, "ECCENTRICITY": 0.013627, "INCLINATION": 98.6932, "RA_OF_ASC_NODE": 183.1278, "ARG_OF_PERICENTER": 0.854, "MEAN_ANOMALY": 114.9049, "EPHEMERIS_TYPE": 0, "CLASSIFICATION_TYPE": "U", "NORAD_CAT_ID": 30232, "ELEMENT_SET_NO": 999, "REV_AT_EPOCH": 99699, "BSTAR": 0.00078382133, "MEAN_MOTION_DOT": 4.594e-05, "MEAN_MOTION_DDOT": 0}, "tle": {"line1": "1 30232U 99025WR  25343.16331360  .00004594  00000+0  78382-3 0  9997", "line2": "2 30232  98.6932 183.1278 0136270   0.8540 114.9049 14.63545463996996"}}, "geometry": {"type": "Point", "coordinates": [-176.2519280671613, -0.9089456034208232]}}, {"type": "Feature", "properties": {"norad_id": 30234, "name": "FENGYUN 1C DEB", "group": "fengyun-1c-debris", "lat": 63.660169607820926, "lon": -23.382034666220086, "alt_km": 783.9489363807843, "timestamp": "2025-12-09T14:52:26.436650+00:00", "meta": {"OBJECT_NAME": "FENGYUN 1C DEB", "OBJECT_ID": "1999-025WT", "EPOCH": "2025-12-08T23:35:37.629024", "MEAN_MOTION": 14.1685623, "ECCENTRICITY": 0.0067071, "INCLINATION": 98.6338, "RA_OF_ASC_NODE": 353.8714, "ARG_OF_PERICENTER": 85.8232, "MEAN_ANOMALY": 333.8364, "EPHEMERIS_TYPE": 0, "CLASSIFICATION_TYPE": "U", "NORAD_CAT_ID": 30234, "ELEMENT_SET_NO": 999, "REV_AT_EPOCH": 97403, "BSTAR": 0.00044739, "MEAN_MOTION_DOT": 8.75e-06, "MEAN_MOTION_DDOT": 0}, "tle": {"line1": "1 30234U 99025WT  25342.98307441  .00000875  00000+0  44739-3 0  9998", "line2": "2 30234  98.6338 353.8714 0067071  85.8232 333.8364 14.16856230974030"}}, "geometry": {"type": "Point", "coordinates": [-23.382034666220086, 63.660169607820926]}}, {"type": "Feature", "properties": {"norad_id": 30235, "name": "FENGYUN 1C DEB", "group": "fengyun-1c-debris", "lat": 62.957003315072654, "lon": -160.56229878213801, "alt_km": 930.4119845925889, "timestamp": "2025-12-09T14:52:26.436660+00:00", "meta": {"OBJECT_NAME": "FENGYUN 1C DEB", "OBJECT_ID": "1999-025WU", "EPOCH": "2025-12-09T07:37:00.454368", "MEAN_MOTION": 14.08771869, "ECCENTRICITY": 0.01533003, "INCLINATION": 98.7498, "RA_OF_ASC_NODE": 1.5845, "ARG_OF_PERICENTER": 248.2676, "MEAN_ANOMALY": 135.9844, "EPHEMERIS_TYPE": 0, "CLASSIFICATION_TYPE": "U", "NORAD_CAT_ID": 30235, "ELEMENT_SET_NO": 999, "REV_AT_EPOCH": 96845, "BSTAR": 0.00057337044, "MEAN_MOTION_DOT": 1.058e-05, "MEAN_MOTION_DDOT": 0}, "tle": {"line1": "1 30235U 99025WU  25343.31736637  .00001058  00000+0  57337-3 0  9992", "line2": "2 30235  98.7498   1.5845 0153300 248.2676 135.9844 14.08771869968457"}}, "geometry": {"type": "Point", "coordinates": [-160.56229878213801, 62.957003315072654]}}, {"type": "Feature", "properties": {"norad_id": 30237, "name": "FENGYUN 1C DEB", "group": "fengyun-1c-debris", "lat": 49.68655429227476, "lon": 75.71870379336302, "alt_km": 752.2244205123025, "timestamp": "2025-12-09T14:52:26.436670+00:00", "meta": {"OBJECT_NAME": "FENGYUN 1C DEB", "OBJECT_ID": "1999-025WW", "EPOCH": "2025-12-09T06:33:39.269952", "MEAN_MOTION": 14.40806755, "ECCENTRICITY": 0.00137028, "INCLINATION": 98.8257, "RA_OF_ASC_NODE": 85.9128, "ARG_OF_PERICENTER": 315.8244, "MEAN_ANOMALY": 98.9807, "EPHEMERIS_TYPE": 0, "CLASSIFICATION_TYPE": "U", "NORAD_CAT_ID": 30237, "ELEMENT_SET_NO": 999, "REV_AT_EPOCH": 97648, "BSTAR": 0.003245046, "MEAN_MOTION_DOT": 0.00010369, "MEAN_MOTION_DDOT": 0}, "tle": {"line1": "1 30237U 99025WW  25343.27337118  .00010369  00000+0  32450-2 0  9993", "line2": "2 30237  98.8257  85.9128 0013702 315.8244  98.9807 14.40806755976484"}}, "geometry": {"type": "Point", "coordinates": [75.71870379336302, 49.68655429227476]}}, {"type": "Feature", "properties": {"norad_id": 30239, "name": "FENGYUN 1C DEB", "group": "fengyun-1c-debris", "lat": 60.88858778530586, "lon": 115.46496612569146, "alt_km": 930.3186420702777, "timestamp": "2025-12-09T14:52:26.436680+00:00", "meta": {"OBJECT_NAME": "FENGYUN 1C DEB", "OBJECT_ID": "1999-025WY", "EPOCH": "2025-12-08T09:03:39.099168", "MEAN_MOTION": 11.38060578, "ECCENTRICITY": 0.13460507, "INCLINATION": 99.5887, "RA_OF_ASC_NODE": 132.3018, "ARG_OF_PERICENTER": 38.3016, "MEAN_ANOMALY": 330.6281, "EPHEMERIS_TYPE": 0, "CLASSIFICATION_TYPE": "U", "NORAD_CAT_ID": 30239, "ELEMENT_SET_NO": 999, "REV_AT_EPOCH": 54485, "BSTAR": 0.014654901, "MEAN_MOTION_DOT": 4.849e-05, "MEAN_MOTION_DDOT": 0}, "tle": {"line1": "1 30239U 99025WY  25342.37753587  .00004849  00000+0  14655-1 0  9999", "line2": "2 30239  99.5887 132.3018 1346050  38.3016 330.6281 11.38060578544851"}}, "geometry": {"type": "Point", "coordinates": [115.46496612569146, 60.88858778530586]}}, {"type": "Feature", "properties": {"norad_id": 30241, "name": "FENGYUN 1C DEB", "group": "fengyun-1c-debris", "lat": -30.16999820055524, "lon": 121.82475318558511, "alt_km": 919.2186197887431, "timestamp": "2025-12-09T14:52:26.436691+00:00", "meta": {"OBJECT_NAME": "FENGYUN 1C DEB", "OBJECT_ID": "1999-025XA", "EPOCH": "2025-12-09T05:21:28.181376", "MEAN_MOTION": 14.09541134, "ECCENTRICITY": 0.01468109, "INCLINATION": 99.1484, "RA_OF_ASC_NODE": 116.0469, "ARG_OF_PERICENTER": 90.8752, "MEAN_ANOMALY": 29.1811, "EPHEMERIS_TYPE": 0, "CLASSIFICATION_TYPE": "U", "NORAD_CAT_ID": 30241, "ELEMENT_SET_NO": 999, "REV_AT_EPOCH": 96862, "BSTAR": 0.00039885508, "MEAN_MOTION_DOT": 7.26e-06, "MEAN_MOTION_DDOT": 0}, "tle": {"line1": "1 30241U 99025XA  25343.22324284  .00000726  00000+0  39886-3 0  9990", "line2": "2 30241  99.1484 116.0469 0146810  90.8752  29.1811 14.09541134968620"}}, "geometry": {"type": "Point", "coordinates": [121.82475318558511, -30.16999820055524]}}]}